{
  "norad_id": 48865,
  "name": "COSMOS 2550",
  "history": [
    {
      "epoch": "2026-03-28T11:49:31.757952Z",
      "apogee_km": 470.1781619863077,
      "perigee_km": 458.62795436810484,
      "latitude_deg": 6.852013851949584e-05,
      "longitude_deg": -19.28998739095734,
      "height_km": 466.69679315572336,
      "semi_major_axis_km": 6842.5400581772055,
      "eccentricity": 0.000844,
      "inclination_deg": 67.1421,
      "raan_deg": 344.0047,
      "arg_perigee_deg": 269.5686,
      "mean_anomaly_deg": 90.4502,
      "mean_motion_rev_day": 15.33828274
    }
  ]
}